NORAD_CAT_ID,OBJECT_NAME,OBJECT_TYPE,EPOCH,MEAN_MOTION,ECCENTRICITY,INCLINATION,RA_OF_ASC_NODE,ARG_OF_PERICENTER,MEAN_ANOMALY,BSTAR,MEAN_MOTION_DOT,MEAN_MOTION_DDOT,TLE_LINE0,TLE_LINE1,TLE_LINE2,SEMIMAJOR_AXIS,PERIOD,APOGEE,PERIGEE,DECAYED
54052.0,STARLINK-5189,PAYLOAD,2024-06-09 12:08:23,15.08845861,0.000187,53.2149,288.8514,120.5207,239.597,-3.9777e-05,-9.21e-06,0.0,0 STARLINK-5189,1 54052U 22136B   24161.50583085 -.00000921  00000-0 -39777-4 0  9999,2 54052  53.2149 288.8514 0001870 120.5207 239.5970 15.08845861 91552,6917.862,95.437,541.021,538.434,0.0
54052.0,STARLINK-5189,PAYLOAD,2024-06-09 15:19:09,15.08846813,0.0001343,53.2163,288.2601,100.8782,259.2361,7.4446e-05,8.97e-06,0.0,0 STARLINK-5189,1 54052U 22136B   24161.63831015  .00000897  00000-0  74446-4 0  9994,2 54052  53.2163 288.2601 0001343 100.8782 259.2361 15.08846813 91082,6917.86,95.437,540.654,538.795,0.0
54052.0,STARLINK-5189,PAYLOAD,2024-06-10 00:51:28,15.08862761,0.0001792,53.2166,286.476,95.3922,264.7275,-0.00028562,-4.834e-05,0.0,0 STARLINK-5189,1 54052U 22136B   24162.03574313 -.00004834  00000-0 -28562-3 0  9998,2 54052  53.2166 286.4760 0001792  95.3922 264.7275 15.08862761 91639,6917.811,95.436,540.915,538.436,0.0
54052.0,STARLINK-5189,PAYLOAD,2024-06-10 13:34:33,15.08843751,0.0001507,53.219,284.0985,100.8502,259.2659,4.3822e-05,4.1e-06,0.0,0 STARLINK-5189,1 54052U 22136B   24162.56566970  .00000410  00000-0  43822-4 0  9997,2 54052  53.2190 284.0985 0001507 100.8502 259.2659 15.08843751 91711,6917.869,95.437,540.776,538.691,0.0
54052.0,STARLINK-5189,PAYLOAD,2024-06-10 15:09:56,15.08848815,0.00013,53.2161,283.7987,90.8772,269.2369,7.5597e-05,9.16e-06,0.0,0 STARLINK-5189,1 54052U 22136B   24162.63190585  .00000916  00000-0  75597-4 0  9995,2 54052  53.2161 283.7987 0001300  90.8772 269.2369 15.08848815 91237,6917.853,95.437,540.618,538.819,0.0
54052.0,STARLINK-5189,PAYLOAD,2024-06-11 13:25:21,15.08838253,0.0001447,53.2186,279.6381,111.9802,248.1344,2.23e-05,6.7e-07,0.0,0 STARLINK-5189,1 54052U 22136B   24163.55927353  .00000067  00000-0  22300-4 0  9999,2 54052  53.2186 279.6381 0001447 111.9802 248.1344 15.08838253 91376,6917.886,95.438,540.752,538.75,0.0
54052.0,STARLINK-5189,PAYLOAD,2024-06-12 06:54:36,15.08833385,0.0001771,53.2181,276.3697,93.0369,267.0826,3.904e-05,3.33e-06,0.0,0 STARLINK-5189,1 54052U 22136B   24164.28792007  .00000333  00000-0  39040-4 0  9991,2 54052  53.2181 276.3697 0001771  93.0369 267.0826 15.08833385 91975,6917.901,95.438,540.991,538.54,0.0
54052.0,STARLINK-5189,PAYLOAD,2024-06-12 13:16:09,15.08823047,0.0001597,53.2187,275.1793,93.0798,267.0377,-0.00017168,-3.018e-05,0.0,0 STARLINK-5189,1 54052U 22136B   24164.55288686 -.00003018  00000-0 -17168-3 0  9995,2 54052  53.2187 275.1793 0001597  93.0798 267.0377 15.08823047 92018,6917.932,95.439,540.902,538.692,0.0
54052.0,STARLINK-5189,PAYLOAD,2024-06-12 14:51:32,15.08827216,0.0001253,53.2175,274.8804,90.2537,269.8599,-4.1665e-05,-9.51e-06,0.0,0 STARLINK-5189,1 54052U 22136B   24164.61913067 -.00000951  00000-0 -41665-4 0  9993,2 54052  53.2175 274.8804 0001253  90.2537 269.8599 15.08827216 91537,6917.919,95.438,540.651,538.918,0.0
54052.0,STARLINK-5189,PAYLOAD,2024-06-13 13:06:55,15.08845994,0.0001341,53.2188,270.7163,95.6611,264.4534,0.0001569,2.21e-05,0.0,0 STARLINK-5189,1 54052U 22136B   24165.54647748  .00002210  00000-0  15690-3 0  9992,2 54052  53.2188 270.7163 0001341  95.6611 264.4534 15.08845994 92167,6917.862,95.437,540.655,538.799,0.0
54052.0,STARLINK-5189,PAYLOAD,2024-06-13 14:42:18,15.08849884,0.0001249,53.2185,270.4185,88.2469,271.8666,0.00017942,2.569e-05,0.0,0 STARLINK-5189,1 54052U 22136B   24165.61271552  .00002569  00000-0  17942-3 0  9995,2 54052  53.2185 270.4185 0001249  88.2469 271.8666 15.08849884 91687,6917.85,95.437,540.579,538.851,0.0
54052.0,STARLINK-5189,PAYLOAD,2024-06-13 16:17:41,15.08852534,0.0001294,53.2176,270.1213,86.5368,273.5772,0.00030878,4.631e-05,0.0,0 STARLINK-5189,1 54052U 22136B   24165.67895620  .00004631  00000-0  30878-3 0  9994,2 54052  53.2176 270.1213 0001294  86.5368 273.5772 15.08852534 91699,6917.842,95.437,540.602,538.812,0.0
54052.0,STARLINK-5189,PAYLOAD,2024-06-14 12:57:43,15.08839397,0.0001145,53.2163,266.2503,118.581,241.5297,9.3205e-05,1.196e-05,0.0,0 STARLINK-5189,1 54052U 22136B   24166.54008266  .00001196  00000-0  93205-4 0  9990,2 54052  53.2163 266.2503 0001145 118.5810 241.5297 15.08839397 91820,6917.882,95.438,540.539,538.955,0.0
54052.0,STARLINK-5189,PAYLOAD,2024-06-15 12:48:29,15.08856509,0.0001222,53.2173,261.7906,103.0378,257.0751,0.00014742,2.06e-05,0.0,0 STARLINK-5189,1 54052U 22136B   24167.53367409  .00002060  00000-0  14742-3 0  9996,2 54052  53.2173 261.7906 0001222 103.0378 257.0751 15.08856509 92464,6917.83,95.437,540.54,538.85,0.0
54052.0,STARLINK-5189,PAYLOAD,2024-06-16 12:39:16,15.08848965,0.0001169,53.2162,257.3342,89.0353,271.0774,0.000157,2.212e-05,0.0,0 STARLINK-5189,1 54052U 22136B   24168.52727634  .00002212  00000-0  15700-3 0  9990,2 54052  53.2162 257.3342 0001169  89.0353 271.0774 15.08848965 92124,6917.853,95.437,540.527,538.909,0.0
54052.0,STARLINK-5189,PAYLOAD,2024-06-16 15:50:02,15.08851109,0.0001148,53.216,256.7396,87.8332,272.2791,0.00018247,2.618e-05,0.0,0 STARLINK-5189,1 54052U 22136B   24168.65975480  .00002618  00000-0  18247-3 0  9997,2 54052  53.2160 256.7396 0001148  87.8332 272.2791 15.08851109 92142,6917.846,95.437,540.506,538.917,0.0
54052.0,STARLINK-5189,PAYLOAD,2024-06-17 12:30:04,15.08838084,0.0001155,53.2171,252.8721,94.5499,265.5625,-6.7845e-05,-1.367e-05,0.0,0 STARLINK-5189,1 54052U 22136B   24169.52088554 -.00001367  00000-0 -67845-4 0  9992,2 54052  53.2171 252.8721 0001155  94.5499 265.5625 15.08838084 92272,6917.886,95.438,540.55,538.952,0.0
54052.0,STARLINK-5189,PAYLOAD,2024-06-18 12:20:51,15.08844963,0.0001193,53.2171,248.4144,88.8174,271.2954,7.4357e-05,8.96e-06,0.0,0 STARLINK-5189,1 54052U 22136B   24170.51448030  .00000896  00000-0  74357-4 0  9992,2 54052  53.2171 248.4144 0001193  88.8174 271.2954 15.08844963 92913,6917.865,95.437,540.556,538.905,0.0
54052.0,STARLINK-5189,PAYLOAD,2024-06-18 21:53:10,15.08843089,0.0001224,53.217,246.6312,96.024,264.0892,5.075e-05,5.2e-06,0.0,0 STARLINK-5189,1 54052U 22136B   24170.91192163  .00000520  00000-0  50750-4 0  9994,2 54052  53.2170 246.6312 0001224  96.0240 264.0892 15.08843089 92480,6917.871,95.437,540.583,538.889,0.0
54052.0,STARLINK-5189,PAYLOAD,2024-06-19 12:11:39,15.08829212,0.0001475,53.2182,243.9566,105.3953,254.7202,8.3081e-05,1.034e-05,0.0,0 STARLINK-5189,1 54052U 22136B   24171.50809394  .00001034  00000-0  83081-4 0  9995,2 54052  53.2182 243.9566 0001475 105.3953 254.7202 15.08829212 93065,6917.913,95.438,540.799,538.758,0.0
54052.0,STARLINK-5189,PAYLOAD,2024-06-19 20:08:34,15.08835464,0.00013,53.2167,242.4677,93.616,266.498,0.00010869,1.442e-05,0.0,0 STARLINK-5189,1 54052U 22136B   24171.83929067  .00001442  00000-0  10869-3 0  9997,2 54052  53.2167 242.4677 0001300  93.6160 266.4980 15.08835464 92621,6917.894,95.438,540.659,538.86,0.0
54052.0,STARLINK-5189,PAYLOAD,2024-06-20 13:37:48,15.08848928,0.0001343,53.216,239.1965,89.9332,270.1814,0.00015959,2.253e-05,0.0,0 STARLINK-5189,1 54052U 22136B   24172.56792295  .00002253  00000-0  15959-3 0  9995,2 54052  53.2160 239.1965 0001343  89.9332 270.1814 15.08848928 92732,6917.853,95.437,540.647,538.789,0.0
54052.0,STARLINK-5189,PAYLOAD,2024-06-21 11:53:12,15.0883924,0.0001254,53.2155,235.031,93.8329,266.2807,3.6188e-05,2.88e-06,0.0,0 STARLINK-5189,1 54052U 22136B   24173.49528906  .00000288  00000-0  36188-4 0  9998,2 54052  53.2155 235.0310 0001254  93.8329 266.2807 15.08839240 93361,6917.883,95.438,540.615,538.88,0.0
54052.0,STARLINK-5189,PAYLOAD,2024-06-22 10:08:36,15.08846535,0.0001492,53.2178,230.8573,77.9747,282.1412,1.2443e-05,-9e-07,0.0,0 STARLINK-5189,1 54052U 22136B   24174.42264934 -.00000090  00000-0  12443-4 0  9990,2 54052  53.2178 230.8573 0001492  77.9747 282.1412 15.08846535 93017,6917.86,95.437,540.758,538.693,0.0
54052.0,STARLINK-5189,PAYLOAD,2024-06-23 03:37:51,15.08842471,0.00015,53.2167,227.5983,70.328,289.7874,0.00012077,1.635e-05,0.0,0 STARLINK-5189,1 54052U 22136B   24175.15129063  .00001635  00000-0  12077-3 0  9991,2 54052  53.2167 227.5983 0001500  70.3280 289.7874 15.08842471 93618,6917.873,95.437,540.776,538.7,0.0
54052.0,STARLINK-5189,PAYLOAD,2024-06-23 13:10:09,15.08845924,0.0001353,53.2162,225.8133,78.8113,281.3031,0.00013566,1.872e-05,0.0,0 STARLINK-5189,1 54052U 22136B   24175.54872678  .00001872  00000-0  13566-3 0  9998,2 54052  53.2162 225.8133 0001353  78.8113 281.3031 15.08845924 93186,6917.862,95.437,540.663,538.791,0.0
54052.0,STARLINK-5189,PAYLOAD,2024-06-24 09:50:10,15.08844631,0.0001373,53.2164,221.9471,92.8672,267.2478,9.7358e-05,1.262e-05,0.0,0 STARLINK-5189,1 54052U 22136B   24176.40984622  .00001262  00000-0  97358-4 0  9992,2 54052  53.2164 221.9471 0001373  92.8672 267.2478 15.08844631 93809,6917.866,95.437,540.681,538.781,0.0
54052.0,STARLINK-5189,PAYLOAD,2024-06-25 09:40:58,15.08838906,0.0001404,53.2164,217.4868,95.4278,264.6875,-2.9191e-06,-3.34e-06,0.0,0 STARLINK-5189,1 54052U 22136B   24177.40345098 -.00000334  00000-0 -29191-5 0  9993,2 54052  53.2164 217.4868 0001404  95.4278 264.6875 15.08838906 93951,6917.884,95.438,540.72,538.777,0.0
54052.0,STARLINK-5189,PAYLOAD,2024-06-26 09:31:45,15.08836057,0.0001477,53.2167,213.0299,104.0085,256.1072,1.6448e-05,-2.6e-07,0.0,0 STARLINK-5189,1 54052U 22136B   24178.39705391 -.00000026  00000-0  16448-4 0  9995,2 54052  53.2167 213.0299 0001477 104.0085 256.1072 15.08836057 93610,6917.892,95.438,540.779,538.736,0.0
54052.0,STARLINK-5189,PAYLOAD,2024-06-27 09:22:32,15.08836802,0.0001341,53.2158,208.5644,91.3145,268.8,8.2148e-05,1.02e-05,0.0,0 STARLINK-5189,1 54052U 22136B   24179.39065505  .00001020  00000-0  82148-4 0  9996,2 54052  53.2158 208.5644 0001341  91.3145 268.8000 15.08836802 94258,6917.89,95.438,540.683,538.827,0.0
